$$SOE
2460154.500000000, A.D. 2023-Jul-29 00:00:00.0000, -2.973644727674806E+08, 8.838660224738127E+07, 5.567768476028264E+06,
2460161.500000000, A.D. 2023-Aug-05 00:00:00.0000, -2.993699231883691E+08, 7.828914583547699E+07, 5.135925069082845E+06,
2460168.500000000, A.D. 2023-Aug-12 00:00:00.0000, -3.008851207056225E+08, 6.806348190459768E+07, 4.695672764628638E+06,
2460175.500000000, A.D. 2023-Aug-19 00:00:00.0000, -3.019029864137546E+08, 5.772532010610943E+07, 4.247661158131201E+06,
2460182.500000000, A.D. 2023-Aug-26 00:00:00.0000, -3.024163566144521E+08, 4.729070428898786E+07, 3.792554024941541E+06,
2460189.500000000, A.D. 2023-Sep-02 00:00:00.0000, -3.024179768738593E+08, 3.677607502192854E+07, 3.331032030874949E+06,
2460196.500000000, A.D. 2023-Sep-09 00:00:00.0000, -3.019004988751178E+08, 2.619833599375126E+07, 2.863795622539597E+06,
2460203.500000000, A.D. 2023-Sep-16 00:00:00.0000, -3.008564802418358E+08, 1.557492478866197E+07, 2.391568103595974E+06,
2460210.500000000, A.D. 2023-Sep-23 00:00:00.0000, -2.992783873585303E+08, 4.923888927451838E+06, 1.915098911362045E+06,
2460217.500000000, A.D. 2023-Sep-30 00:00:00.0000, -2.971586020848854E+08, -5.736030977718763E+06, 1.435167254455319E+06,
2460224.500000000, A.D. 2023-Oct-07 00:00:00.0000, -2.944894354139844E+08, -1.638531078693688E+07, 9.525863182457061E+05,
2460231.500000000, A.D. 2023-Oct-14 00:00:00.0000, -2.912631479031088E+08, -2.700354765872972E+07, 4.682077102345712E+05,
2460238.500000000, A.D. 2023-Oct-21 00:00:00.0000, -2.874719747133343E+08, -3.756935770130549E+07, -1.707397724201530E+04,
2460245.500000000, A.D. 2023-Oct-28 00:00:00.0000, -2.831081579675774E+08, -4.806026329550765E+07, -5.023161239755861E+05,
2460252.500000000, A.D. 2023-Nov-04 00:00:00.0000, -2.781639892429343E+08, -5.845256992788202E+07, -9.865224560514390E+05,
2460259.500000000, A.D. 2023-Nov-11 00:00:00.0000, -2.726318639415061E+08, -6.872123216888908E+07, -1.468636849638715E+06,
2460266.500000000, A.D. 2023-Nov-18 00:00:00.0000, -2.665043496581145E+08, -7.883970787325446E+07, -1.947536533518989E+06,
2460273.500000000, A.D. 2023-Nov-25 00:00:00.0000, -2.597742712997000E+08, -8.877979960845265E+07, -2.422024636164211E+06,
2460280.500000000, A.D. 2023-Dec-02 00:00:00.0000, -2.524348163488880E+08, -9.851148242304409E+07, -2.890822021513268E+06,
2460287.500000000, A.D. 2023-Dec-09 00:00:00.0000, -2.444796643299881E+08, -1.080027172614991E+08, -3.352558368606217E+06,
2460294.500000000, A.D. 2023-Dec-16 00:00:00.0000, -2.359031451809011E+08, -1.172192495161845E+08, -3.805762470115840E+06,
2460301.500000000, A.D. 2023-Dec-23 00:00:00.0000, -2.267004321875441E+08, -1.261243919429965E+08, -4.248851687605001E+06,
2460308.500000000, A.D. 2023-Dec-30 00:00:00.0000, -2.168677780186812E+08, -1.346787914355664E+08, -4.680120338049620E+06,
2460315.500000000, A.D. 2024-Jan-06 00:00:00.0000, -2.064028042238317E+08, -1.428401835023463E+08, -5.097727059633315E+06,
2460322.500000000, A.D. 2024-Jan-13 00:00:00.0000, -1.953048512195446E+08, -1.505631390964320E+08, -5.499681665526330E+06,
2460329.500000000, A.D. 2024-Jan-20 00:00:00.0000, -1.835753995376869E+08, -1.577988054671456E+08, -5.883831490253076E+06,
2460336.500000000, A.D. 2024-Jan-27 00:00:00.0000, -1.712185782841920E+08, -1.644946477783481E+08, -6.247847236281790E+06,
2460343.500000000, A.D. 2024-Feb-03 00:00:00.0000, -1.582417770713904E+08, -1.705942034742974E+08, -6.589208747617513E+06,
2460350.500000000, A.D. 2024-Feb-10 00:00:00.0000, -1.446563786952643E+08, -1.760368657120869E+08, -6.905191352163769E+06,
2460357.500000000, A.D. 2024-Feb-17 00:00:00.0000, -1.304786312365575E+08, -1.807577186397792E+08, -7.192853672263302E+06,
2460364.500000000, A.D. 2024-Feb-24 00:00:00.0000, -1.157306786989966E+08, -1.846874561221436E+08, -7.449028190407507E+06,
2460371.500000000, A.D. 2024-Mar-02 00:00:00.0000, -1.004417677662133E+08, -1.877524267564780E+08, -7.670316365419343E+06,
2460378.500000000, A.D. 2024-Mar-09 00:00:00.0000, -8.464964341532341E+07, -1.898748619104884E+08, -7.853090737239465E+06,
2460385.500000000, A.D. 2024-Mar-16 00:00:00.0000, -6.840213620681247E+07, -1.909733597987365E+08, -7.993507235135630E+06,
2460392.500000000, A.D. 2024-Mar-23 00:00:00.0000, -5.175892768271334E+07, -1.909637162512945E+08, -8.087531691059664E+06,
2460399.500000000, A.D. 2024-Mar-30 00:00:00.0000, -3.479345543675885E+07, -1.897602126689278E+08, -8.130985431281000E+06,
2460406.500000000, A.D. 2024-Apr-06 00:00:00.0000, -1.759487662410949E+07, -1.872774902183680E+08, -8.119616220215417E+06,
2460413.500000000, A.D. 2024-Apr-13 00:00:00.0000, -2.699491540131776E+05, -1.834331405921369E+08, -8.049201349753231E+06,
2460420.500000000, A.D. 2024-Apr-20 00:00:00.0000, 1.705537841531418E+07, -1.781511279326796E+08, -7.915688906748563E+06,
2460427.500000000, A.D. 2024-Apr-27 00:00:00.0000, 3.423496185316233E+07, -1.713661135671315E+08, -7.715381919700973E+06,
2460434.500000000, A.D. 2024-May-04 00:00:00.0000, 5.110242165259989E+07, -1.630286621927760E+08, -7.445166640567996E+06,
2460441.500000000, A.D. 2024-May-11 00:00:00.0000, 6.747251125422199E+07, -1.531111556261461E+08, -7.102779862757616E+06,
2460448.500000000, A.D. 2024-May-18 00:00:00.0000, 8.314433662991467E+07, -1.416140289122892E+08, -6.687100885917142E+06,
2460455.500000000, A.D. 2024-May-25 00:00:00.0000, 9.790676684524538E+07, -1.285716956079682E+08, -6.198442263453536E+06,
2460462.500000000, A.D. 2024-Jun-01 00:00:00.0000, 1.115461289003253E+08, -1.140572999216322E+08, -5.638802036512405E+06,
2460469.500000000, A.D. 2024-Jun-08 00:00:00.0000, 1.238558871840691E+08, -9.818531142347595E+07, -5.012032585336551E+06,
2460476.500000000, A.D. 2024-Jun-15 00:00:00.0000, 1.346475243274666E+08, -8.111106137886423E+07, -4.323882109625705E+06,
2460483.500000000, A.D. 2024-Jun-22 00:00:00.0000, 1.437613916499381E+08, -6.302667126191916E+07, -3.581877492589399E+06,
2460490.500000000, A.D. 2024-Jun-29 00:00:00.0000, 1.510760535567203E+08, -4.415342047106490E+07, -2.795042130495382E+06,
2460497.500000000, A.D. 2024-Jul-06 00:00:00.0000, 1.565147531679045E+08, -2.473129493564439E+07, -1.973473819191702E+06,
2460504.500000000, A.D. 2024-Jul-13 00:00:00.0000, 1.600480885302902E+08, -5.007030928165574E+06, -1.127835278912353E+06,
2460511.500000000, A.D. 2024-Jul-20 00:00:00.0000, 1.616926887344764E+08, 1.477776530896129E+07, -2.688252793954071E+05,
2460518.500000000, A.D. 2024-Jul-27 00:00:00.0000, 1.615064022740689E+08, 3.439696762436902E+07, 5.933029109264743E+05,
2460525.500000000, A.D. 2024-Aug-03 00:00:00.0000, 1.595810327219675E+08, 5.364774309038696E+07, 1.449125660461750E+06,
2460532.500000000, A.D. 2024-Aug-10 00:00:00.0000, 1.560338624278800E+08, 7.235541007157244E+07, 2.290310287416250E+06,
2460539.500000000, A.D. 2024-Aug-17 00:00:00.0000, 1.509991094356410E+08, 9.037546320295116E+07, 3.109752400214102E+06,
2460546.500000000, A.D. 2024-Aug-24 00:00:00.0000, 1.446201729222367E+08, 1.075932566373666E+08, 3.901605971017428E+06,
2460553.500000000, A.D. 2024-Aug-31 00:00:00.0000, 1.370431683728965E+08, 1.239220032738510E+08, 4.661232146933980E+06,
2460560.500000000, A.D. 2024-Sep-07 00:00:00.0000, 1.284119360397551E+08, 1.392997470326289E+08, 5.385094558307678E+06,
2460567.500000000, A.D. 2024-Sep-14 00:00:00.0000, 1.188644752357291E+08, 1.536858626981407E+08, 6.070625733671308E+06,
2460574.500000000, A.D. 2024-Sep-21 00:00:00.0000, 1.085306194204154E+08, 1.670574929055711E+08, 6.716083786759689E+06,
2460581.500000000, A.D. 2024-Sep-28 00:00:00.0000, 9.753071177357838E+07, 1.794061861583278E+08, 7.320412163044542E+06,
2460588.500000000, A.D. 2024-Oct-05 00:00:00.0000, 8.597504180677649E+07, 1.907348852804869E+08, 7.883109848592386E+06,
2460595.500000000, A.D. 2024-Oct-12 00:00:00.0000, 7.396382591502738E+07, 2.010553322287460E+08, 8.404115858278602E+06,
2460602.500000000, A.D. 2024-Oct-19 00:00:00.0000, 6.158755250712358E+07, 2.103858946393494E+08, 8.883708400401980E+06,
2460609.500000000, A.D. 2024-Oct-26 00:00:00.0000, 4.892755474527916E+07, 2.187497834071130E+08, 9.322416276688561E+06,
2460616.500000000, A.D. 2024-Nov-02 00:00:00.0000, 3.605670725950447E+07, 2.261736076334219E+08, 9.720940974469185E+06,
2460623.500000000, A.D. 2024-Nov-09 00:00:00.0000, 2.304015562527540E+07, 2.326862052384420E+08, 1.008010880565599E+07,
2460630.500000000, A.D. 2024-Nov-16 00:00:00.0000, 9.936012634847824E+06, 2.383177545720790E+08, 1.040089387286869E+07,
2460637.500000000, A.D. 2024-Nov-23 00:00:00.0000, -3.203920710490982E+06, 2.430991886176786E+08, 1.068442205142175E+07,
2460644.500000000, A.D. 2024-Nov-30 00:00:00.0000, -1.633340887837200E+07, 2.470617122619885E+08, 1.093187295565467E+07,
2460651.500000000, A.D. 2024-Dec-07 00:00:00.0000, -2.941113502853536E+07, 2.502363688623501E+08, 1.114441756470752E+07,
2460658.500000000, A.D. 2024-Dec-14 00:00:00.0000, -4.240014290351980E+07, 2.526537371375271E+08, 1.132320989315458E+07,
2460665.500000000, A.D. 2024-Dec-21 00:00:00.0000, -5.526733427139464E+07, 2.543437329737312E+08, 1.146938652414942E+07,
2460672.500000000, A.D. 2024-Dec-28 00:00:00.0000, -6.798301581194884E+07, 2.553354760768762E+08, 1.158406379783691E+07,
2460679.500000000, A.D. 2025-Jan-04 00:00:00.0000, -8.052049229069103E+07, 2.556572043239871E+08, 1.166833409515931E+07,
2460686.500000000, A.D. 2025-Jan-11 00:00:00.0000, -9.285570499024738E+07, 2.553362255947708E+08, 1.172326270473894E+07,
2460693.500000000, A.D. 2025-Jan-18 00:00:00.0000, -1.049669123379685E+08, 2.543988974049726E+08, 1.174988563021234E+07,
2460700.500000000, A.D. 2025-Jan-25 00:00:00.0000, -1.168344082693455E+08, 2.528706270738783E+08, 1.174920827027847E+07,
2460707.500000000, A.D. 2025-Feb-01 00:00:00.0000, -1.284402740358760E+08, 2.507758871216524E+08, 1.172220483482343E+07,
2460714.500000000, A.D. 2025-Feb-08 00:00:00.0000, -1.397681595470918E+08, 2.481382418399216E+08, 1.166981835662432E+07,
2460721.500000000, A.D. 2025-Feb-15 00:00:00.0000, -1.508030906725951E+08, 2.449803818647757E+08, 1.159296116615058E+07,
$$EOE